{
    "links": {
        "self": "http://www.neowsapp.com/rest/v1/neo/3362875?api_key=iIulBulltgU6a56xZRHN4H3l9WmuAYTsLGpBGhQ2"
    },
    "id": "3362875",
    "neo_reference_id": "3362875",
    "name": "(2006 WG130)",
    "designation": "2006 WG130",
    "nasa_jpl_url": "http://ssd.jpl.nasa.gov/sbdb.cgi?sstr=3362875",
    "absolute_magnitude_h": 24.7,
    "estimated_diameter": {
        "kilometers": {
            "estimated_diameter_min": 0.0305179233,
            "estimated_diameter_max": 0.0682401509
        },
        "meters": {
            "estimated_diameter_min": 30.5179232594,
            "estimated_diameter_max": 68.2401509401
        },
        "miles": {
            "estimated_diameter_min": 0.0189629525,
            "estimated_diameter_max": 0.0424024508
        },
        "feet": {
            "estimated_diameter_min": 100.1244233463,
            "estimated_diameter_max": 223.8850168104
        }
    },
    "is_potentially_hazardous_asteroid": false,
    "close_approach_data": [
        {
            "close_approach_date": "2006-11-22",
            "close_approach_date_full": "2006-Nov-22 19:56",
            "epoch_date_close_approach": 1164225360000,
            "relative_velocity": {
                "kilometers_per_second": "12.100724896",
                "kilometers_per_hour": "43562.6096255078",
                "miles_per_hour": "27068.1115198051"
            },
            "miss_distance": {
                "astronomical": "0.0365477543",
                "lunar": "14.2170764227",
                "kilometers": "5467466.196563341",
                "miles": "3397325.9584464658"
            },
            "orbiting_body": "Earth"
        },
        {
            "close_approach_date": "2178-08-25",
            "close_approach_date_full": "2178-Aug-25 18:26",
            "epoch_date_close_approach": 6584351160000,
            "relative_velocity": {
                "kilometers_per_second": "20.7073875039",
                "kilometers_per_hour": "74546.595014035",
                "miles_per_hour": "46320.3551074708"
            },
            "miss_distance": {
                "astronomical": "0.4378606064",
                "lunar": "170.3277758896",
                "kilometers": "65503014.074348368",
                "miles": "40701685.5835607584"
            },
            "orbiting_body": "Earth"
        }
    ],
    "orbital_data": {
        "orbit_id": "6",
        "orbit_determination_date": "2017-04-06 09:07:27",
        "first_observation_date": "2006-11-27",
        "last_observation_date": "2006-11-29",
        "data_arc_in_days": 2,
        "observations_used": 19,
        "orbit_uncertainty": "9",
        "minimum_orbit_intersection": ".030538",
        "jupiter_tisserand_invariant": "3.229",
        "epoch_osculation": "2454067.5",
        "eccentricity": ".5993325754839774",
        "semi_major_axis": "2.407365271626892",
        "inclination": "11.27766597147078",
        "ascending_node_longitude": "64.06730846358022",
        "orbital_period": "1364.304820416754",
        "perihelion_distance": ".9645528432520618",
        "perihelion_argument": "325.3674884371886",
        "aphelion_distance": "3.850177700001721",
        "perihelion_time": "2454038.963840122235",
        "mean_anomaly": "7.529855060438255",
        "mean_motion": ".2638706501748127",
        "equinox": "J2000",
        "orbit_class": {
            "orbit_class_type": "APO",
            "orbit_class_description": "Near-Earth asteroid orbits which cross the Earth’s orbit similar to that of 1862 Apollo",
            "orbit_class_range": "a (semi-major axis) > 1.0 AU; q (perihelion) < 1.017 AU"
        }
    },
    "is_sentry_object": false
}